start=new Date('2022-06-25T00:00:00.000Z').valueOf();
sats=[{"CENTER_NAME":"EARTH","TLE_LINE2":"2 48320  53.0561  58.9830 0001567  68.5127 291.6029 15.06389502 63984","SEMIMAJOR_AXIS":"6925.381","MEAN_MOTION_DDOT":"0.0000000000000","GP_ID":"206788072","REF_FRAME":"TEME","COUNTRY_CODE":"US","APOAPSIS":"548.331","OBJECT_ID":"2021-036AW","ELEMENT_SET_NO":"999","BSTAR":"0.00007664800000","CLASSIFICATION_TYPE":"U","NORAD_CAT_ID":"48320","MEAN_ANOMALY":"291.6029","OBJECT_TYPE":"PAYLOAD","ECCENTRICITY":"0.00015670","MEAN_MOTION":"15.06389502","SITE":"AFETR","OBJECT_NAME":"STARLINK-2029","DECAY_DATE":null,"EPHEMERIS_TYPE":"0","INCLINATION":"53.0561","REV_AT_EPOCH":"6398","TLE_LINE1":"1 48320U 21036AW  22175.90966932  .00000860  00000-0  76648-4 0  9999","RA_OF_ASC_NODE":"58.9830","PERIOD":"95.593","MEAN_ELEMENT_THEORY":"SGP4","LAUNCH_DATE":"2021-04-29","TIME_SYSTEM":"UTC","MEAN_MOTION_DOT":"0.00000860","RCS_SIZE":"LARGE","EPOCH":"2022-06-24T21:49:55.429248","ARG_OF_PERICENTER":"68.5127","PERIAPSIS":"546.161","FILE":"3501798"},{"REF_FRAME":"TEME","SEMIMAJOR_AXIS":"6925.358","TLE_LINE2":"2 48321  53.0562  58.9892 0001820  65.7159 294.4020 15.06396845 63980","GP_ID":"206788323","MEAN_MOTION_DDOT":"0.0000000000000","CENTER_NAME":"EARTH","MEAN_ANOMALY":"294.4020","NORAD_CAT_ID":"48321","CLASSIFICATION_TYPE":"U","APOAPSIS":"548.484","COUNTRY_CODE":"US","ELEMENT_SET_NO":"999","BSTAR":"-0.00004113900000","OBJECT_ID":"2021-036AX","OBJECT_NAME":"STARLINK-2457","EPHEMERIS_TYPE":"0","DECAY_DATE":null,"SITE":"AFETR","ECCENTRICITY":"0.00018200","MEAN_MOTION":"15.06396845","OBJECT_TYPE":"PAYLOAD","PERIAPSIS":"545.963","ARG_OF_PERICENTER":"65.7159","FILE":"3501798","RCS_SIZE":"LARGE","EPOCH":"2022-06-24T21:44:36.713472","TIME_SYSTEM":"UTC","LAUNCH_DATE":"2021-04-29","MEAN_MOTION_DOT":"-0.00000894","REV_AT_EPOCH":"6398","INCLINATION":"53.0562","MEAN_ELEMENT_THEORY":"SGP4","PERIOD":"95.592","RA_OF_ASC_NODE":"58.9892","TLE_LINE1":"1 48321U 21036AX  22175.90598048 -.00000894  00000-0 -41139-4 0  9995"},{"BSTAR":"0.00003922600000","ELEMENT_SET_NO":"999","OBJECT_ID":"2021-036AY","APOAPSIS":"548.129","COUNTRY_CODE":"US","CLASSIFICATION_TYPE":"U","NORAD_CAT_ID":"48322","MEAN_ANOMALY":"288.3131","CENTER_NAME":"EARTH","GP_ID":"206787072","MEAN_MOTION_DDOT":"0.0000000000000","SEMIMAJOR_AXIS":"6925.380","TLE_LINE2":"2 48322  53.0559  59.0048 0001276  71.7997 288.3131 15.06389699 63988","REF_FRAME":"TEME","PERIOD":"95.593","RA_OF_ASC_NODE":"59.0048","MEAN_ELEMENT_THEORY":"SGP4","TLE_LINE1":"1 48322U 21036AY  22175.90229540  .00000303  00000-0  39226-4 0  9991","REV_AT_EPOCH":"6398","INCLINATION":"53.0559","MEAN_MOTION_DOT":"0.00000303","LAUNCH_DATE":"2021-04-29","TIME_SYSTEM":"UTC","EPOCH":"2022-06-24T21:39:18.322560","RCS_SIZE":"LARGE","FILE":"3501798","PERIAPSIS":"546.361","ARG_OF_PERICENTER":"71.7997","OBJECT_TYPE":"PAYLOAD","MEAN_MOTION":"15.06389699","ECCENTRICITY":"0.00012760","SITE":"AFETR","EPHEMERIS_TYPE":"0","DECAY_DATE":null,"OBJECT_NAME":"STARLINK-2477"},{"ELEMENT_SET_NO":"999","BSTAR":"0.00001735300000","OBJECT_ID":"2021-036AZ","APOAPSIS":"548.403","COUNTRY_CODE":"US","CLASSIFICATION_TYPE":"U","NORAD_CAT_ID":"48323","MEAN_ANOMALY":"287.4434","CENTER_NAME":"EARTH","GP_ID":"206787322","MEAN_MOTION_DDOT":"0.0000000000000","SEMIMAJOR_AXIS":"6925.375","TLE_LINE2":"2 48323  53.0544  59.0217 0001680  72.6739 287.4434 15.06391515 63980","REF_FRAME":"TEME","PERIOD":"95.593","MEAN_ELEMENT_THEORY":"SGP4","RA_OF_ASC_NODE":"59.0217","TLE_LINE1":"1 48323U 21036AZ  22175.89861266 -.00000023  00000-0  17353-4 0  9994","REV_AT_EPOCH":"6398","INCLINATION":"53.0544","MEAN_MOTION_DOT":"-0.00000023","TIME_SYSTEM":"UTC","LAUNCH_DATE":"2021-04-29","EPOCH":"2022-06-24T21:34:00.133824","RCS_SIZE":"LARGE","FILE":"3501798","PERIAPSIS":"546.076","ARG_OF_PERICENTER":"72.6739","OBJECT_TYPE":"PAYLOAD","MEAN_MOTION":"15.06391515","ECCENTRICITY":"0.00016800","SITE":"AFETR","EPHEMERIS_TYPE":"0","DECAY_DATE":null,"OBJECT_NAME":"STARLINK-2515"},{"TLE_LINE2":"2 48324  53.0548  59.0266 0001368  66.9785 293.1348 15.06399121 63977","SEMIMAJOR_AXIS":"6925.351","MEAN_MOTION_DDOT":"0.0000000000000","GP_ID":"206787573","REF_FRAME":"TEME","CENTER_NAME":"EARTH","NORAD_CAT_ID":"48324","MEAN_ANOMALY":"293.1348","COUNTRY_CODE":"US","APOAPSIS":"548.164","OBJECT_ID":"2021-036BA","BSTAR":"0.00001894200000","ELEMENT_SET_NO":"999","CLASSIFICATION_TYPE":"U","SITE":"AFETR","OBJECT_NAME":"STARLINK-2527","DECAY_DATE":null,"EPHEMERIS_TYPE":"0","OBJECT_TYPE":"PAYLOAD","ECCENTRICITY":"0.00013680","MEAN_MOTION":"15.06399121","RCS_SIZE":"LARGE","EPOCH":"2022-06-24T21:27:19.508256","ARG_OF_PERICENTER":"66.9785","PERIAPSIS":"546.269","FILE":"3501798","INCLINATION":"53.0548","REV_AT_EPOCH":"6397","TLE_LINE1":"1 48324U 21036BA  22175.89397579  .00000001  00000-0  18942-4 0  9996","RA_OF_ASC_NODE":"59.0266","PERIOD":"95.592","MEAN_ELEMENT_THEORY":"SGP4","LAUNCH_DATE":"2021-04-29","TIME_SYSTEM":"UTC","MEAN_MOTION_DOT":"0.00000001"},{"FILE":"3501798","PERIAPSIS":"546.046","ARG_OF_PERICENTER":"62.1540","EPOCH":"2022-06-24T21:23:22.887168","RCS_SIZE":"LARGE","MEAN_MOTION_DOT":"0.00000081","LAUNCH_DATE":"2021-04-29","TIME_SYSTEM":"UTC","PERIOD":"95.593","MEAN_ELEMENT_THEORY":"SGP4","RA_OF_ASC_NODE":"59.0683","TLE_LINE1":"1 48325U 21036BB  22175.89123712  .00000081  00000-0  24359-4 0  9990","REV_AT_EPOCH":"6398","INCLINATION":"53.0561","EPHEMERIS_TYPE":"0","DECAY_DATE":null,"OBJECT_NAME":"STARLINK-2495","SITE":"AFETR","MEAN_MOTION":"15.06391364","ECCENTRICITY":"0.00017240","OBJECT_TYPE":"PAYLOAD","MEAN_ANOMALY":"297.9623","NORAD_CAT_ID":"48325","CLASSIFICATION_TYPE":"U","BSTAR":"0.00002435900000","ELEMENT_SET_NO":"999","OBJECT_ID":"2021-036BB","APOAPSIS":"548.434","COUNTRY_CODE":"US","REF_FRAME":"TEME","GP_ID":"206787823","MEAN_MOTION_DDOT":"0.0000000000000","SEMIMAJOR_AXIS":"6925.375","TLE_LINE2":"2 48325  53.0561  59.0683 0001724  62.1540 297.9623 15.06391364 63989","CENTER_NAME":"EARTH"},{"REF_FRAME":"TEME","GP_ID":"206786572","MEAN_MOTION_DDOT":"0.0000000000000","SEMIMAJOR_AXIS":"6925.361","TLE_LINE2":"2 48326  53.0571  59.0784 0001516  84.1593 275.9569 15.06395783 63988","CENTER_NAME":"EARTH","MEAN_ANOMALY":"275.9569","NORAD_CAT_ID":"48326","CLASSIFICATION_TYPE":"U","ELEMENT_SET_NO":"999","BSTAR":"0.00013333000000","OBJECT_ID":"2021-036BC","APOAPSIS":"548.276","COUNTRY_CODE":"US","EPHEMERIS_TYPE":"0","DECAY_DATE":null,"OBJECT_NAME":"STARLINK-2498","SITE":"AFETR","MEAN_MOTION":"15.06395783","ECCENTRICITY":"0.00015160","OBJECT_TYPE":"PAYLOAD","FILE":"3501798","PERIAPSIS":"546.177","ARG_OF_PERICENTER":"84.1593","EPOCH":"2022-06-24T21:18:04.444416","RCS_SIZE":"LARGE","MEAN_MOTION_DOT":"0.00001705","LAUNCH_DATE":"2021-04-29","TIME_SYSTEM":"UTC","PERIOD":"95.592","RA_OF_ASC_NODE":"59.0784","MEAN_ELEMENT_THEORY":"SGP4","TLE_LINE1":"1 48326U 21036BC  22175.88755144  .00001705  00000-0  13333-3 0  9993","REV_AT_EPOCH":"6398","INCLINATION":"53.0571"},{"OBJECT_ID":"2021-036BD","ELEMENT_SET_NO":"999","BSTAR":"0.00008245600000","COUNTRY_CODE":"US","APOAPSIS":"548.422","CLASSIFICATION_TYPE":"U","NORAD_CAT_ID":"48327","MEAN_ANOMALY":"298.2516","CENTER_NAME":"EARTH","MEAN_MOTION_DDOT":"0.0000000000000","GP_ID":"206786822","TLE_LINE2":"2 48327  53.0570  59.0907 0001726  61.8647 298.2516 15.06395853 63988","SEMIMAJOR_AXIS":"6925.361","REF_FRAME":"TEME","TLE_LINE1":"1 48327U 21036BD  22175.88386722  .00000947  00000-0  82456-4 0  9996","PERIOD":"95.592","MEAN_ELEMENT_THEORY":"SGP4","RA_OF_ASC_NODE":"59.0907","INCLINATION":"53.0570","REV_AT_EPOCH":"6398","MEAN_MOTION_DOT":"0.00000947","TIME_SYSTEM":"UTC","LAUNCH_DATE":"2021-04-29","EPOCH":"2022-06-24T21:12:46.127808","RCS_SIZE":"LARGE","FILE":"3501798","ARG_OF_PERICENTER":"61.8647","PERIAPSIS":"546.031","OBJECT_TYPE":"PAYLOAD","MEAN_MOTION":"15.06395853","ECCENTRICITY":"0.00017260","SITE":"AFETR","DECAY_DATE":null,"EPHEMERIS_TYPE":"0","OBJECT_NAME":"STARLINK-2502"},{"MEAN_MOTION":"15.06404575","ECCENTRICITY":"0.00015320","OBJECT_TYPE":"PAYLOAD","EPHEMERIS_TYPE":"0","DECAY_DATE":null,"OBJECT_NAME":"STARLINK-2504","SITE":"AFETR","MEAN_MOTION_DOT":"0.00001698","LAUNCH_DATE":"2021-04-29","TIME_SYSTEM":"UTC","MEAN_ELEMENT_THEORY":"SGP4","PERIOD":"95.592","RA_OF_ASC_NODE":"59.1040","TLE_LINE1":"1 48328U 21036BE  22175.87922564  .00001698  00000-0  13282-3 0  9990","REV_AT_EPOCH":"6398","INCLINATION":"53.0570","FILE":"3501798","PERIAPSIS":"546.139","ARG_OF_PERICENTER":"67.1762","EPOCH":"2022-06-24T21:06:05.095296","RCS_SIZE":"LARGE","CENTER_NAME":"EARTH","REF_FRAME":"TEME","GP_ID":"206788073","MEAN_MOTION_DDOT":"0.0000000000000","SEMIMAJOR_AXIS":"6925.335","TLE_LINE2":"2 48328  53.0570  59.1040 0001532  67.1762 292.9388 15.06404575 63980","CLASSIFICATION_TYPE":"U","BSTAR":"0.00013282000000","ELEMENT_SET_NO":"999","OBJECT_ID":"2021-036BE","APOAPSIS":"548.260","COUNTRY_CODE":"US","MEAN_ANOMALY":"292.9388","NORAD_CAT_ID":"48328"},{"CENTER_NAME":"EARTH","REF_FRAME":"TEME","MEAN_MOTION_DDOT":"0.0000000000000","GP_ID":"206788324","TLE_LINE2":"2 48329  53.0534  59.1306 0002413  49.2621 310.8577 15.06390563 63981","SEMIMAJOR_AXIS":"6925.377","CLASSIFICATION_TYPE":"U","OBJECT_ID":"2021-036BF","ELEMENT_SET_NO":"999","BSTAR":"-0.00004581900000","COUNTRY_CODE":"US","APOAPSIS":"548.914","MEAN_ANOMALY":"310.8577","NORAD_CAT_ID":"48329","MEAN_MOTION":"15.06390563","ECCENTRICITY":"0.00024130","OBJECT_TYPE":"PAYLOAD","DECAY_DATE":null,"EPHEMERIS_TYPE":"0","OBJECT_NAME":"STARLINK-2510","SITE":"AFETR","MEAN_MOTION_DOT":"-0.00000964","TIME_SYSTEM":"UTC","LAUNCH_DATE":"2021-04-29","TLE_LINE1":"1 48329U 21036BF  22175.87649862 -.00000964  00000-0 -45819-4 0  9997","MEAN_ELEMENT_THEORY":"SGP4","PERIOD":"95.593","RA_OF_ASC_NODE":"59.1306","INCLINATION":"53.0534","REV_AT_EPOCH":"6398","FILE":"3501798","ARG_OF_PERICENTER":"49.2621","PERIAPSIS":"545.571","EPOCH":"2022-06-24T21:02:09.480768","RCS_SIZE":"LARGE"}];
